{
"type": "FeatureCollection",
"name": "Glacier_break",
"crs": { "type": "name", "properties": { "name": "urn:ogc:def:crs:OGC:1.3:CRS84" } },
"features": [
{"type":"Feature","properties":{"id":1,"Name":"Glacier Break","Area_sq.km":0.337},"geometry":{"type":"MultiPolygon","coordinates":[[[[85.529387985052395,28.293340044229943],[85.530154290603861,28.287031818325495],[85.529216638171121,28.286029133025512],[85.52745824427484,28.285408614192718],[85.525913661135419,28.286534931405889],[85.525151712314269,28.287579449783472],[85.525288883832189,28.290185065549348],[85.525532300361974,28.291631458704508],[85.526097154335233,28.292562468753719],[85.527238355676559,28.292974732029325],[85.527983188761624,28.293445689997203],[85.529382320872529,28.293365831886202],[85.529387985052395,28.293340044229943]]]]}}
]
}
