{
"type": "FeatureCollection",
"name": "Glacier",
"crs": { "type": "name", "properties": { "name": "urn:ogc:def:crs:OGC:1.3:CRS84" } },
"features": [
{"type":"Feature","properties":{"id":1,"Area_sq.km":1.353,"Name":"Glacier"},"geometry":{"type":"MultiPolygon","coordinates":[[[[85.528366897591297,28.293458755788258],[85.529523763002828,28.293350906108209],[85.530740318707927,28.293845257976255],[85.53190446011331,28.292820543270711],[85.533195698130612,28.291586163947631],[85.534434500454651,28.290456483353513],[85.536421562851373,28.289274655693003],[85.537518237394437,28.288594599635882],[85.539057807788055,28.287829037784803],[85.539885934585868,28.286905460040003],[85.540687044728301,28.285470252539248],[85.541080444564912,28.284030684605924],[85.541273270993685,28.282348344161985],[85.540349084764671,28.280353283782908],[85.53836111673769,28.279128880656781],[85.535709213591474,28.279250868271713],[85.533789456785655,28.280493571530616],[85.533659107779243,28.282567590409695],[85.532830221542383,28.284784498103544],[85.530182408167178,28.287072068945918],[85.52921150405227,28.286016388373699],[85.52746564380702,28.285411043861227],[85.525895269043914,28.286559641584788],[85.525151136385404,28.28754419539445],[85.525362323894555,28.290403927284125],[85.525549184829146,28.291639160637722],[85.52608876380377,28.29255485857442],[85.527235325634081,28.292963419934456],[85.527984787890219,28.293445237261984],[85.528366897591297,28.293458755788258]]]]}}
]
}
