{
"type": "FeatureCollection",
"name": "Lake_2",
"crs": { "type": "name", "properties": { "name": "urn:ogc:def:crs:OGC:1.3:CRS84" } },
"features": [
{"type":"Feature","properties":{"id":2,"Name":"Upstresam Lake","Area_sq.km":0.176},"geometry":{"type":"MultiPolygon","coordinates":[[[[85.508708052958852,28.295239078509535],[85.509123484652363,28.295147741004428],[85.509316766629212,28.294994760279316],[85.509673607157396,28.29522142321672],[85.510063084033447,28.295163637588676],[85.510299820873215,28.295092905005657],[85.510339389738704,28.295454276267545],[85.510605468064924,28.295564333078353],[85.510758354046985,28.295109186680577],[85.511133361921679,28.295175313135744],[85.511598172857106,28.294740485885782],[85.511862194891705,28.294540335275226],[85.512205034528719,28.294628666866235],[85.512537701813059,28.294073962817603],[85.512672641437533,28.293534023117857],[85.512946164572611,28.293108386322761],[85.513091647230382,28.292726472083388],[85.512869048433416,28.292239034812262],[85.512480191218089,28.291794903527762],[85.511973060671352,28.291608907847124],[85.511863098114702,28.291269328322969],[85.51189642356978,28.290705722955671],[85.511196303108761,28.290652973583263],[85.510863457896349,28.290305323279625],[85.510301516311458,28.289938253958251],[85.509889325949871,28.289798404030645],[85.509624369918384,28.290066217172214],[85.509386943478887,28.290644512821224],[85.509225561235354,28.29079502239059],[85.508961950597168,28.292337416679988],[85.509184059954791,28.292858692584232],[85.509118473102234,28.293450142851576],[85.508769197413557,28.294281001049121],[85.508666916008039,28.29476207638481],[85.508708052958852,28.295239078509535]]]]}}
]
}
