{
"type": "FeatureCollection",
"name": "Lake_1",
"crs": { "type": "name", "properties": { "name": "urn:ogc:def:crs:OGC:1.3:CRS84" } },
"features": [
{"type":"Feature","properties":{"id":1,"Area_sq.km":0.118,"Name":"Downstream Lake"},"geometry":{"type":"MultiPolygon","coordinates":[[[[85.477842124104043,28.332943319174447],[85.479446639662427,28.333062726757987],[85.480836086062425,28.333066928388362],[85.481662315036303,28.333234036380549],[85.482142166295461,28.333555194765768],[85.48253183798829,28.33394302368901],[85.483294507578734,28.334098135721771],[85.484009558018272,28.33401585060075],[85.484974298833649,28.333406211369034],[85.485543590905266,28.332814733703536],[85.485969956242627,28.332413414174752],[85.486765143393129,28.33207258118297],[85.487697812759762,28.331925014660229],[85.487433348536086,28.331696497774693],[85.486044555879616,28.331647254194017],[85.484408317610431,28.331967462170933],[85.483402213350303,28.331899884344047],[85.482303686202144,28.332056855370986],[85.48123305320965,28.332044939711984],[85.480069510022403,28.332291402462225],[85.479523052770062,28.332172520553222],[85.478895304401505,28.332391106462264],[85.477999251500492,28.332651812945016],[85.477842124104043,28.332943319174447]]]]}}
]
}
